STARLINK-37323          
1 69516U 26133J   26170.83335647 -.01648087  85095-3 -27078-2 0  9999
2 69516  53.1585 309.1623 0000822  46.4696 215.4733 16.02619519  2284
STARLINK-37357          
1 69517U 26133K   26170.83335647 -.01633858  83918-3 -26550-2 0  9996
2 69517  53.1584 309.1545 0000758  43.1655 222.4135 16.02803786  2289
STARLINK-37408          
1 69518U 26133L   26170.83335647 -.01627243  83563-3 -26000-2 0  9994
2 69518  53.1584 309.1455 0000804  44.6035 225.3073 16.03086766  2285
STARLINK-37570          
1 69519U 26133M   26170.83335647 -.01614374  83049-3 -24685-2 0  9992
2 69519  53.1584 309.1247 0000754  43.1854 236.6210 16.03819300  2288
STARLINK-37510          
1 69520U 26133N   26170.83335647 -.01623564  83576-3 -25367-2 0  9998
2 69520  53.1581 309.1358 0000784  49.0624 225.8433 16.03460856  2288
STARLINK-37586          
1 69521U 26133P   26170.83335647 -.01578295  80132-3 -23387-2 0  9994
2 69521  53.1581 309.1076 0000738  43.9958 244.1600 16.04334824  2284
STARLINK-37379          
1 69522U 26133Q   26170.83335647 -.01562067  78803-3 -22862-2 0  9994
2 69522  53.1581 309.0994 0000727  45.0928 246.8298 16.04536097  2335
STARLINK-37429          
1 69523U 26133R   26170.83335647 -.01548069  77684-3 -22385-2 0  9997
2 69523  53.1580 309.0917 0000742  45.2353 250.3895 16.04732920  2337
STARLINK-37352          
1 69524U 26133S   26170.83335647 -.01549959  78196-3 -21921-2 0  9991
2 69524  53.1580 309.0815 0000621  45.0270 255.4486 16.05096572  2336
STARLINK-37490          
1 69525U 26133T   26170.83335647 -.01507488  74891-3 -20442-2 0  9998
2 69525  53.1577 309.0617 0000829  44.4297 265.5753 16.05774354  2335
STARLINK-37438          
1 69526U 26133U   26170.83335647 -.01547219  78218-3 -21485-2 0  9990
2 69526  53.1579 309.0730 0000858  48.3164 256.5438 16.05394425  2339
STARLINK-37484          
1 69527U 26133V   26170.83335647 -.01516599  75975-3 -20226-2 0  9997
2 69527  53.1576 309.0510 0000665  41.0344 274.0351 16.06044858  2331
STARLINK-37523          
1 69528U 26133W   26170.83335647 -.01488624  73596-3 -19592-2 0  9996
2 69528  53.1578 309.0430 0000756  42.3412 276.5738 16.06253488  2333
STARLINK-37369          
1 69529U 26133X   26170.83335647 -.01509314  75721-3 -19562-2 0  9996
2 69529  53.1574 309.0348 0000622  45.4075 277.4171 16.06502759  2338
STARLINK-37670          
1 69530U 26133Y   26170.83335647 -.01481417  73573-3 -18647-2 0  9997
2 69530  53.1575 309.0234 0000614  51.8897 276.5718 16.06965446  2332
STARLINK-37897          
1 69531U 26133Z   26170.83335647 -.01443159  70364-3 -17827-2 0  9993
2 69531  53.1572 309.0113 0000703  59.8403 274.1423 16.07258372  2281
STARLINK-37933          
1 69532U 26133AA  26170.83335647 -.01447027  71139-3 -17327-2 0  9998
2 69532  53.1572 308.9992 0000798  53.8261 285.8851 16.07750147  2286
STARLINK-37890          
1 69533U 26133AB  26170.83335647 -.01448862  71547-3 -17050-2 0  9993
2 69533  53.1574 308.9904 0000784  58.3024 285.5335 16.08023536  2284
STARLINK-37407          
1 69534U 26133AC  26170.83335647 -.01393262  66856-3 -16039-2 0  9990
2 69534  53.1570 308.9770 0000755  62.8324 287.1935 16.08358208  2330
STARLINK-37888          
1 69535U 26133AD  26170.83335647 -.01392596  67113-3 -15646-2 0  9990
2 69535  53.1574 308.9666 0000544  52.7648 302.1489 16.08737119  2280
STARLINK-37889          
1 69536U 26133AE  26170.83335647 -.01588337  80791-3 -23969-2 0  9995
2 69536  53.1597 309.1184 0000796  44.9635 238.7218 16.04034458  2288
2026-134A               
1 69538U 26134A   26170.70792928  .00003503  00000+0  22391-3 0  9997
2 69538  97.7008 240.8195 0014128 261.5875  98.3752 15.09228168   694
2026-134B               
1 69539U 26134B   26170.70745897  .00003582  00000+0  22785-3 0  9995
2 69539  97.6982 240.8192 0014266 264.3735  95.5867 15.09384773   681
2026-134C               
1 69540U 26134C   26170.64107490  .00003473  00000+0  22091-3 0  9990
2 69540  97.6987 240.7529 0013674 266.0697  93.8968 15.09415292   672
2026-134D               
1 69541U 26134D   26170.70719255  .00003623  00000+0  22981-3 0  9991
2 69541  97.7028 240.8214 0014759 265.2342  94.7201 15.09472819   684
2026-134E               
1 69542U 26134E   26170.64083806  .00003505  00000+0  22240-3 0  9998
2 69542  97.7047 240.7557 0014477 266.3582  93.5991 15.09494119   679
2026-134F               
1 69543U 26134F   26170.64070456  .00003549  00000+0  22484-3 0  9994
2 69543  97.6999 240.7539 0013815 268.4427  91.5219 15.09540434   674
2026-134G               
1 69544U 26134G   26170.70673958  .00003487  00000+0  22047-3 0  9994
2 69544  97.7044 240.8226 0014295 268.9208  91.0382 15.09623875   684
2026-134H               
1 69545U 26134H   26170.70654370  .00003573  00000+0  22540-3 0  9996
2 69545  97.7029 240.8223 0014185 270.3639  89.5964 15.09689566   674
