OBJECT_NAME,OBJECT_ID,EPOCH,MEAN_MOTION,ECCENTRICITY,INCLINATION,RA_OF_ASC_NODE,ARG_OF_PERICENTER,MEAN_ANOMALY,EPHEMERIS_TYPE,CLASSIFICATION_TYPE,NORAD_CAT_ID,ELEMENT_SET_NO,REV_AT_EPOCH,BSTAR,MEAN_MOTION_DOT,MEAN_MOTION_DDOT
STARLINK-37323,2026-133J,2026-06-19T20:00:01.999008,16.02619519,.0000822,53.1585,309.1623,46.4696,215.4733,0,U,69516,999,228,-.27078E-2,-.1648087E-1,.85095E-3
STARLINK-37357,2026-133K,2026-06-19T20:00:01.999008,16.02803786,.0000758,53.1584,309.1545,43.1655,222.4135,0,U,69517,999,228,-.2655E-2,-.1633858E-1,.83918E-3
STARLINK-37408,2026-133L,2026-06-19T20:00:01.999008,16.03086766,.0000804,53.1584,309.1455,44.6035,225.3073,0,U,69518,999,228,-.26E-2,-.1627243E-1,.83563E-3
STARLINK-37570,2026-133M,2026-06-19T20:00:01.999008,16.03819300,.0000754,53.1584,309.1247,43.1854,236.6210,0,U,69519,999,228,-.24685E-2,-.1614374E-1,.83049E-3
STARLINK-37510,2026-133N,2026-06-19T20:00:01.999008,16.03460856,.0000784,53.1581,309.1358,49.0624,225.8433,0,U,69520,999,228,-.25367E-2,-.1623564E-1,.83576E-3
STARLINK-37586,2026-133P,2026-06-19T20:00:01.999008,16.04334824,.0000738,53.1581,309.1076,43.9958,244.1600,0,U,69521,999,228,-.23387E-2,-.1578295E-1,.80132E-3
STARLINK-37379,2026-133Q,2026-06-19T20:00:01.999008,16.04536097,.0000727,53.1581,309.0994,45.0928,246.8298,0,U,69522,999,233,-.22862E-2,-.1562067E-1,.78803E-3
STARLINK-37429,2026-133R,2026-06-19T20:00:01.999008,16.04732920,.0000742,53.1580,309.0917,45.2353,250.3895,0,U,69523,999,233,-.22385E-2,-.1548069E-1,.77684E-3
STARLINK-37352,2026-133S,2026-06-19T20:00:01.999008,16.05096572,.0000621,53.1580,309.0815,45.0270,255.4486,0,U,69524,999,233,-.21921E-2,-.1549959E-1,.78196E-3
STARLINK-37490,2026-133T,2026-06-19T20:00:01.999008,16.05774354,.0000829,53.1577,309.0617,44.4297,265.5753,0,U,69525,999,233,-.20442E-2,-.1507488E-1,.74891E-3
STARLINK-37438,2026-133U,2026-06-19T20:00:01.999008,16.05394425,.0000858,53.1579,309.0730,48.3164,256.5438,0,U,69526,999,233,-.21485E-2,-.1547219E-1,.78218E-3
STARLINK-37484,2026-133V,2026-06-19T20:00:01.999008,16.06044858,.0000665,53.1576,309.0510,41.0344,274.0351,0,U,69527,999,233,-.20226E-2,-.1516599E-1,.75975E-3
STARLINK-37523,2026-133W,2026-06-19T20:00:01.999008,16.06253488,.0000756,53.1578,309.0430,42.3412,276.5738,0,U,69528,999,233,-.19592E-2,-.1488624E-1,.73596E-3
STARLINK-37369,2026-133X,2026-06-19T20:00:01.999008,16.06502759,.0000622,53.1574,309.0348,45.4075,277.4171,0,U,69529,999,233,-.19562E-2,-.1509314E-1,.75721E-3
STARLINK-37670,2026-133Y,2026-06-19T20:00:01.999008,16.06965446,.0000614,53.1575,309.0234,51.8897,276.5718,0,U,69530,999,233,-.18647E-2,-.1481417E-1,.73573E-3
STARLINK-37897,2026-133Z,2026-06-19T20:00:01.999008,16.07258372,.0000703,53.1572,309.0113,59.8403,274.1423,0,U,69531,999,228,-.17827E-2,-.1443159E-1,.70364E-3
STARLINK-37933,2026-133AA,2026-06-19T20:00:01.999008,16.07750147,.0000798,53.1572,308.9992,53.8261,285.8851,0,U,69532,999,228,-.17327E-2,-.1447027E-1,.71139E-3
STARLINK-37890,2026-133AB,2026-06-19T20:00:01.999008,16.08023536,.0000784,53.1574,308.9904,58.3024,285.5335,0,U,69533,999,228,-.1705E-2,-.1448862E-1,.71547E-3
STARLINK-37407,2026-133AC,2026-06-19T20:00:01.999008,16.08358208,.0000755,53.1570,308.9770,62.8324,287.1935,0,U,69534,999,233,-.16039E-2,-.1393262E-1,.66856E-3
STARLINK-37888,2026-133AD,2026-06-19T20:00:01.999008,16.08737119,.0000544,53.1574,308.9666,52.7648,302.1489,0,U,69535,999,228,-.15646E-2,-.1392596E-1,.67113E-3
STARLINK-37889,2026-133AE,2026-06-19T20:00:01.999008,16.04034458,.0000796,53.1597,309.1184,44.9635,238.7218,0,U,69536,999,228,-.23969E-2,-.1588337E-1,.80791E-3
2026-134A,2026-134A,2026-06-19T16:59:25.089792,15.09228168,.0014128,97.7008,240.8195,261.5875,98.3752,0,U,69538,999,69,.22391E-3,.3503E-4,0
2026-134B,2026-134B,2026-06-19T16:58:44.455008,15.09384773,.0014266,97.6982,240.8192,264.3735,95.5867,0,U,69539,999,68,.22785E-3,.3582E-4,0
2026-134C,2026-134C,2026-06-19T15:23:08.871360,15.09415292,.00136743,97.6987,240.7529,266.0697,93.8968,0,U,69540,999,67,.2209102E-3,.3473E-4,0
2026-134D,2026-134D,2026-06-19T16:58:21.436320,15.09472819,.0014759,97.7028,240.8214,265.2342,94.7201,0,U,69541,999,68,.22981E-3,.3623E-4,0
2026-134E,2026-134E,2026-06-19T15:22:48.408384,15.09494119,.00144772,97.7047,240.7557,266.3582,93.5991,0,U,69542,999,67,.22239822E-3,.3505E-4,0
2026-134F,2026-134F,2026-06-19T15:22:36.873984,15.09540434,.00138155,97.6999,240.7539,268.4427,91.5219,0,U,69543,999,67,.2248447E-3,.3549E-4,0
2026-134G,2026-134G,2026-06-19T16:57:42.299712,15.09623875,.0014295,97.7044,240.8226,268.9208,91.0382,0,U,69544,999,68,.22047E-3,.3487E-4,0
2026-134H,2026-134H,2026-06-19T16:57:25.375680,15.09689566,.0014185,97.7029,240.8223,270.3639,89.5964,0,U,69545,999,67,.2254E-3,.3573E-4,0
